BEIDOU-2 IGSO-1 (C06)   
1 36828U 10036A   25319.51552983 -.00000044  00000+0  00000+0 0  9992
2 36828  54.2794 164.8948 0050831 215.9297 326.8706  1.00284412 55950
BEIDOU-2 G4 (C04)       
1 37210U 10057A   25319.84053745 -.00000102  00000+0  00000+0 0  9994
2 37210   3.1166  70.0194 0010357 183.9668 263.8154  1.00272999 55154
BEIDOU-2 IGSO-2 (C07)   
1 37256U 10068A   25319.82427707 -.00000231  00000+0  00000+0 0  9990
2 37256  47.9377 274.4809 0049892 216.8009 326.6599  1.00295421 54658
BEIDOU-2 IGSO-3 (C08)   
1 37384U 11013A   25319.74895993 -.00000209  00000+0  00000+0 0  9995
2 37384  62.1081  42.1747 0036116 185.1772 205.1553  1.00277466 53527
BEIDOU-2 IGSO-4 (C09)   
1 37763U 11038A   25316.50056243  .00000001  00000+0  00000+0 0  9990
2 37763  54.5766 167.6166 0148016 230.3620 287.2618  1.00287989 52476
BEIDOU-2 IGSO-5 (C10)   
1 37948U 11073A   25319.85383718 -.00000219  00000+0  00000+0 0  9997
2 37948  48.0709 274.1865 0108323 222.1268 318.7291  1.00253026 50997
BEIDOU-2 G5 (C05)       
1 38091U 12008A   25319.86989362  .00000067  00000+0  00000+0 0  9994
2 38091   3.0410  70.7956 0011431 223.9658 132.3919  1.00268091 50224
BEIDOU-2 M3 (C11)       
1 38250U 12018A   25317.86844544 -.00000067  00000+0  00000+0 0  9993
2 38250  55.9443 312.1279 0024741 271.8388  87.8856  1.86229862 91938
BEIDOU-2 M4 (C12)       
1 38251U 12018B   25318.33741910 -.00000069  00000+0  00000+0 0  9992
2 38251  55.8457 311.3435 0015830 273.8444  85.9811  1.86229584 91944
BEIDOU-2 M6 (C14)       
1 38775U 12050B   25319.12237861 -.00000052  00000+0  00000+0 0  9994
2 38775  56.3555  69.9836 0010565 349.6414  10.3216  1.86230886 89327
BEIDOU-2 G6 (C02)       
1 38953U 12059A   25318.83682916 -.00000169  00000+0  00000+0 0  9992
2 38953   3.8771  75.7754 0006772 295.9636  67.6650  1.00275070 47769
BEIDOU-3S IGSO-1S (C31) 
1 40549U 15019A   25297.52891953 -.00000131  00000+0  00000+0 0  9999
2 40549  49.6453 298.3029 0040504 197.6198 177.4401  1.00251575 38711
BEIDOU-3S M2S (C58)     
1 40748U 15037A   25318.00553997 -.00000069  00000+0  00000+0 0  9990
2 40748  55.0639 309.4499 0012799 264.0243  95.8339  1.86229280 70114
BEIDOU-3S M1S (C57)     
1 40749U 15037B   25313.40753130 -.00000054  00000+0  00000+0 0  9995
2 40749  55.0645 309.5979 0003018 351.9958   8.0019  1.86253818 70035
BEIDOU-3S IGSO-2S (C56) 
1 40938U 15053A   25319.81483572 -.00000176  00000+0  00000+0 0  9999
2 40938  49.5555 261.3241 0061031 189.3588 353.9342  1.00276495 37217
BEIDOU-2 IGSO-6 (C13)   
1 41434U 16021A   25319.73821780 -.00000170  00000+0  00000+0 0  9999
2 41434  59.9279  40.1700 0059006 230.4177 143.2737  1.00259902 35345
BEIDOU-2 G7 (C03)       
1 41586U 16037A   25317.83299332 -.00000352  00000+0  00000+0 0  9997
2 41586   1.6854  67.4413 0004990 333.8224  62.3831  1.00272756  4739
BEIDOU-3 M1 (C19)       
1 43001U 17069A   25320.49874795 -.00000061  00000+0  00000+0 0  9992
2 43001  56.5051  70.1008 0008143 304.7344  55.1712  1.86231195 54645
BEIDOU-3 M2 (C20)       
1 43002U 17069B   25320.43707120 -.00000061  00000+0  00000+0 0  9994
2 43002  56.5040  70.1391 0005721 337.8195  22.1379  1.86230810 54634
BEIDOU-3 M7 (C27)       
1 43107U 18003A   25319.10662424 -.00000077  00000+0  00000+0 0  9995
2 43107  54.5212 309.7757 0002365  77.1140 282.9154  1.86232492 53365
BEIDOU-3 M8 (C28)       
1 43108U 18003B   25317.44044804 -.00000068  00000+0  00000+0 0  9997
2 43108  54.5154 309.8165 0004955 268.9375  91.0108  1.86230937 53340
BEIDOU-3 M4 (C22)       
1 43207U 18018A   25318.95612984 -.00000050  00000+0  00000+0 0  9991
2 43207  56.4630  70.2230 0004127  25.0424 334.9627  1.86231103 52755
BEIDOU-3 M3 (C21)       
1 43208U 18018B   25319.02267391 -.00000050  00000+0  00000+0 0  9999
2 43208  56.4623  70.2250 0005635 321.1154  38.8290  1.86231250 52754
BEIDOU-3 M9 (C29)       
1 43245U 18029A   25319.23860183 -.00000077  00000+0  00000+0 0  9992
2 43245  54.3906 307.4262 0001852 264.9469  95.0315  1.86228318 51915
BEIDOU-3 M10 (C30)      
1 43246U 18029B   25318.10006824 -.00000071  00000+0  00000+0 0  9996
2 43246  54.3890 307.4937 0003603 356.1907   3.8082  1.86229084 51878
BEIDOU-2 IGSO-7 (C16)   
1 43539U 18057A   25317.99677953 -.00000066  00000+0  00000+0 0  9999
2 43539  55.1704 164.9233 0091937 235.4476 124.0124  1.00265911 26979
BEIDOU-3 M5 (C23)       
1 43581U 18062A   25314.02922606  .00000013  00000+0  00000+0 0  9992
2 43581  54.0890 189.7565 0002521 334.0276  26.0474  1.86228620 49556
BEIDOU-3 M6 (C24)       
1 43582U 18062B   25314.96638256  .00000006  00000+0  00000+0 0  9993
2 43582  54.0887 189.7137 0007336  40.7185 319.4199  1.86229735 49570
BEIDOU-3 M12 (C26)      
1 43602U 18067A   25319.19954016  .00000044  00000+0  00000+0 0  9998
2 43602  54.1832 188.2981 0009037  38.8832 321.2707  1.86227716 49137
BEIDOU-3 M11 (C25)      
1 43603U 18067B   25319.33397675  .00000047  00000+0  00000+0 0  9990
2 43603  54.1804 188.2576 0005470  33.2850 326.8389  1.86227243 49168
BEIDOU-3 M13 (C32)      
1 43622U 18072A   25319.82760147 -.00000058  00000+0  00000+0 0  9992
2 43622  56.4364  69.7113 0004919 300.5459  59.3893  1.86230925 48682
BEIDOU-3 M14 (C33)      
1 43623U 18072B   25319.15611579 -.00000053  00000+0  00000+0 0  9998
2 43623  56.4377  69.7274 0002656 347.9034  12.0753  1.86230925 48664
BEIDOU-3 M16 (C35)      
1 43647U 18078A   25318.24046089 -.00000072  00000+0  00000+0 0  9998
2 43647  54.2878 307.5173 0006601  17.5650 342.4593  1.86232301 48157
BEIDOU-3 M15 (C34)      
1 43648U 18078B   25319.44355384 -.00000078  00000+0  00000+0 0  9999
2 43648  54.2826 307.4763 0003212  15.8847 344.1245  1.86232247 48195
BEIDOU-3 G1 (C59)       
1 43683U 18085A   25319.83663743 -.00000266  00000+0  00000+0 0  9999
2 43683   2.5389 103.8208 0002031  51.4629 341.2011  1.00270973 25927
BEIDOU-3 M17 (C36)      
1 43706U 18093A   25319.37263304  .00000044  00000+0  00000+0 0  9995
2 43706  54.1724 189.5511 0006825 304.9298 261.5168  1.86228420 47554
BEIDOU-3 M18 (C37)      
1 43707U 18093B   25319.99993469  .00000054  00000+0  00000+0 0  9997
2 43707  54.1728 189.5217 0006581 347.6703  12.4060  1.86226697 47565
BEIDOU-3 IGSO-1 (C38)   
1 44204U 19023A   25319.63377912 -.00000237  00000+0  00000+0 0  9998
2 44204  58.3956  39.8569 0026859 221.0873 137.8979  1.00253104  5066
BEIDOU-2 G8 (C01)       
1 44231U 19027A   25319.83864325 -.00000238  00000+0  00000+0 0  9994
2 44231   1.5925  74.6315 0007933 255.9934 171.0119  1.00270564 23946
BEIDOU-3 IGSO-2 (C39)   
1 44337U 19035A   25319.40858080 -.00000049  00000+0  00000+0 0  9994
2 44337  55.2189 160.7421 0037219 202.2043 318.2327  1.00279963 23524
BEIDOU-3 M24 (C46)      
1 44542U 19061A   25318.99743775  .00000038  00000+0  00000+0 0  9995
2 44542  54.4003 189.9528 0009473  20.5955 339.5299  1.86229442 41809
BEIDOU-3 M23 (C45)      
1 44543U 19061B   25319.40600488  .00000044  00000+0  00000+0 0  9993
2 44543  54.3985 189.9072 0006002  16.2578 170.6163  1.86229635 41819
BEIDOU-3 IGSO-3 (C40)   
1 44709U 19073A   25319.31215150 -.00000212  00000+0  00000+0 0  9996
2 44709  55.1721 283.2127 0044622 191.7898 168.0359  1.00251666 22310
BEIDOU-3 M22 (C44)      
1 44793U 19078A   25318.30082618 -.00000073  00000+0  00000+0 0  9998
2 44793  54.1341 307.3838 0005257  22.0430 337.9808  1.86232043 40640
BEIDOU-3 M21 (C43)      
1 44794U 19078B   25318.43784800 -.00000074  00000+0  00000+0 0  9996
2 44794  54.1073 307.3446 0003500   8.0312 351.9753  1.86227737 40650
BEIDOU-3 M19 (C41)      
1 44864U 19090A   25319.75863697 -.00000057  00000+0  00000+0 0  9997
2 44864  56.3707  69.8560 0016891 284.5251  76.5027  1.86231481 40265
BEIDOU-3 M20 (C42)      
1 44865U 19090B   25319.73018108 -.00000057  00000+0  00000+0 0  9995
2 44865  56.3724  69.8911 0014034 297.9877 133.5773  1.86231456 40246
BEIDOU-3 G2 (C60)       
1 45344U 20017A   25319.85322610 -.00000132  00000+0  00000+0 0  9992
2 45344   2.9503  43.2636 0003769 263.4054 135.7325  1.00271618 21122
BEIDOU-3 G3 (C61)       
1 45807U 20040A   25318.26107866 -.00000350  00000+0  00000+0 0  9992
2 45807   1.9212  66.3230 0004811 303.2519 248.4934  1.00266041 19912
BEIDOU-3 G4 (C62)       
1 56564U 23066A   25319.84053745 -.00000103  00000+0  00000+0 0  9992
2 56564   0.8754 299.9418 0003874 228.0091 349.8700  1.00272662  9251
BEIDOU-3 M28 (C50)      
1 58654U 23207A   25319.59014831 -.00000057  00000+0  00000+0 0  9994
2 58654  55.5612  69.5205 0001340 254.3019 105.6676  1.86229749 12869
BEIDOU-3 M26 (C48)      
1 58655U 23207B   25317.24021028 -.00000037  00000+0  00000+0 0  9999
2 58655  55.5615  69.5861 0002800 241.4053 118.5560  1.86231241 12807
BEIDOU-3 M25 (C47)      
1 61186U 24168B   25319.26130572 -.00000077  00000+0  00000+0 0  9992
2 61186  54.6661 309.6716 0005500 290.1282 101.8710  1.86230209  7802
BEIDOU-3 M27 (C49)      
1 61187U 24168C   25319.81437949 -.00000079  00000+0  00000+0 0  9994
2 61187  54.6610 309.6361 0002091 322.4035 215.3303  1.86230353  5289
